[{"OBJECT_NAME":"STARLINK-36403","OBJECT_ID":"2026-016C","EPOCH":"2026-03-09T19:31:58.821600","MEAN_MOTION":15.75229489,"ECCENTRICITY":0.00014634,"INCLINATION":97.2836,"RA_OF_ASC_NODE":129.3209,"ARG_OF_PERICENTER":87.4879,"MEAN_ANOMALY":272.6554,"EPHEMERIS_TYPE":0,"CLASSIFICATION_TYPE":"U","NORAD_CAT_ID":67563,"ELEMENT_SET_NO":999,"REV_AT_EPOCH":682,"BSTAR":0.0014664616,"MEAN_MOTION_DOT":0.00224843,"MEAN_MOTION_DDOT":0},{"OBJECT_NAME":"CZ-2F DEB","OBJECT_ID":"2026-024G","EPOCH":"2026-03-09T22:26:56.614272","MEAN_MOTION":15.01116214,"ECCENTRICITY":0.03207922,"INCLINATION":49.8328,"RA_OF_ASC_NODE":21.451,"ARG_OF_PERICENTER":268.4479,"MEAN_ANOMALY":87.9702,"EPHEMERIS_TYPE":0,"CLASSIFICATION_TYPE":"U","NORAD_CAT_ID":67720,"ELEMENT_SET_NO":999,"REV_AT_EPOCH":459,"BSTAR":0.0038278463,"MEAN_MOTION_DOT":0.00157764,"MEAN_MOTION_DDOT":0}]
